OBJECT_NAME,OBJECT_ID,EPOCH,MEAN_MOTION,ECCENTRICITY,INCLINATION,RA_OF_ASC_NODE,ARG_OF_PERICENTER,MEAN_ANOMALY,EPHEMERIS_TYPE,CLASSIFICATION_TYPE,NORAD_CAT_ID,ELEMENT_SET_NO,REV_AT_EPOCH,BSTAR,MEAN_MOTION_DOT,MEAN_MOTION_DDOT
ONEWEB-0275,2021-060AC,2026-07-12T12:52:25.759200,13.16595912,.00019962,87.9083,223.7408,96.6469,263.4889,0,U,48993,999,24289,.26209661E-3,.113E-5,0
ONEWEB-0276,2021-060AD,2026-07-13T00:36:56.185920,13.16594350,.00019475,87.9084,223.6424,94.5069,265.6284,0,U,48994,999,24297,.33601193E-4,.26E-6,0
ONEWEB-0277,2021-060AE,2026-07-12T15:48:00.331488,13.16594869,.00021178,87.9071,223.7235,99.0807,261.0563,0,U,48995,999,24291,-.121856E-3,-.34E-6,0
ONEWEB-0278,2021-060AF,2026-07-13T00:41:29.884704,13.16594091,.00023293,87.9096,223.6391,89.1317,271.0081,0,U,48996,999,24309,.76999744E-4,.42E-6,0
ONEWEB-0279,2021-060AG,2026-07-12T13:56:16.921824,13.16594282,.0001938,87.9079,223.7283,100.5777,259.5572,0,U,48997,999,24296,-.11412E-5,.12E-6,0
ONEWEB-0280,2021-060AH,2026-07-12T14:17:56.088384,13.16594832,.00024137,87.9079,223.7297,96.5527,263.5879,0,U,48998,999,24290,.14993629E-3,.7E-6,0
ONEWEB-0281,2021-060AJ,2026-07-12T12:36:28.876608,13.16593989,.0002048,87.9080,223.7392,92.4723,267.6643,0,U,48999,999,24296,.2602663E-3,.112E-5,0
ONEWEB-0282,2021-060AK,2026-07-13T00:16:24.836448,13.16595022,.00021621,87.9080,223.6497,93.2652,266.8726,0,U,49000,999,24300,.11899094E-3,.58E-6,0
ONEWEB-0283,2021-060AL,2026-07-12T13:03:50.054112,13.16593255,.0002029,87.9078,223.7423,93.6276,266.5087,0,U,49001,999,24295,.36894E-3,.154E-5,0
ONEWEB-0284,2021-060AM,2026-07-12T12:54:43.711488,13.16594144,.00023531,87.9081,223.7376,93.4456,266.6944,0,U,49002,999,24293,.18353785E-3,.83E-6,0
ONEWEB-0285,2021-075A,2026-07-12T21:42:44.653536,13.12432813,.00018583,87.8979,345.5469,96.1630,263.9710,0,U,49075,999,23858,.78288116E-3,.294E-5,0
ONEWEB-0286,2021-075B,2026-07-12T21:16:55.015968,13.12441741,.00017283,87.8953,345.5666,85.9555,274.1771,0,U,49076,999,23793,.6185393E-3,.235E-5,0
ONEWEB-0287,2021-075C,2026-07-12T19:59:37.737888,13.17646640,.00018402,87.9146,0.7626,80.9956,279.1384,0,U,49077,999,23700,-.31366549E-3,-.109E-5,0
ONEWEB-0288,2021-075D,2026-07-13T07:41:38.647680,13.12442948,.00019686,87.8966,345.4595,89.7779,270.3575,0,U,49078,999,23861,.65130315E-3,.247E-5,0
ONEWEB-0289,2021-075E,2026-07-12T20:55:31.258848,13.17647588,.00023032,87.9149,0.7741,97.3973,262.7420,0,U,49079,999,23758,.75074863E-3,.304E-5,0
ONEWEB-0290,2021-075F,2026-07-12T22:05:59.344800,13.17650615,.00022994,87.9147,0.7373,96.4455,263.6938,0,U,49080,999,23700,.48833358E-4,.32E-6,0
ONEWEB-0291,2021-075G,2026-07-12T19:54:47.262816,13.17646853,.00021429,87.9143,0.7605,85.2805,274.8571,0,U,49081,999,23698,.18483944E-3,.85E-6,0
ONEWEB-0293,2021-075H,2026-07-12T22:20:33.680832,13.17651112,.00019317,87.9133,0.7430,91.9664,268.1688,0,U,49082,999,23702,.21675999E-3,.97E-6,0
ONEWEB-0294,2021-075J,2026-07-13T00:32:19.521888,13.12517741,.00023995,87.8961,345.5230,99.3471,260.7929,0,U,49083,999,23796,-.33473043E-1,-.12027E-3,0
ONEWEB-0295,2021-075K,2026-07-12T22:19:21.386496,13.17650238,.00019937,87.9139,0.7478,84.6981,275.4378,0,U,49084,999,23698,.1849525E-3,.85E-6,0
ONEWEB-0296,2021-075L,2026-07-12T22:13:13.164384,13.12443978,.00020675,87.8970,345.5493,88.1940,271.9425,0,U,49085,999,23795,-.57845904E-3,-.195E-5,0
ONEWEB-0297,2021-075M,2026-07-12T21:07:21.350208,13.12441305,.00019932,87.8956,345.5668,96.3727,263.7629,0,U,49086,999,23855,.79411507E-3,.298E-5,0
ONEWEB-0298,2021-075N,2026-07-12T22:25:39.268128,13.17649655,.00017165,87.9138,0.7450,89.8008,270.3320,0,U,49087,999,23701,.20405194E-3,.92E-6,0
ONEWEB-0299,2021-075P,2026-07-12T22:27:51.502464,13.17648518,.000184,87.9151,0.7269,86.3475,273.7867,0,U,49088,999,23699,.60133816E-4,.36E-6,0
ONEWEB-0300,2021-075Q,2026-07-12T20:56:22.704000,13.12442521,.00014594,87.8970,345.5497,93.5370,266.5926,0,U,49089,999,23857,.11830051E-2,.438E-5,0
ONEWEB-0301,2021-075R,2026-07-12T22:22:58.502784,13.12444135,.00015148,87.8967,345.5360,98.9664,261.1636,0,U,49090,999,23794,.11147745E-3,.53E-6,0
ONEWEB-0302,2021-075S,2026-07-12T22:03:27.455328,13.12442659,.00021684,87.8961,345.5510,95.0360,265.1016,0,U,49091,999,23792,-.73931699E-3,-.253E-5,0
ONEWEB-0304,2021-075T,2026-07-12T21:51:24.355584,13.17647359,.00019039,87.9137,0.7526,86.2534,273.8815,0,U,49092,999,23696,.17107141E-3,.79E-6,0
ONEWEB-0305,2021-075U,2026-07-12T21:41:41.330976,13.17647614,.00019789,87.9149,0.7398,80.4566,279.6789,0,U,49093,999,23699,-.22834601E-3,-.76E-6,0
ONEWEB-0308,2021-075V,2026-07-12T21:53:41.395488,13.12443019,.00018228,87.8967,345.5443,95.4726,264.6611,0,U,49094,999,23793,-.9640514E-3,-.334E-5,0
