ONEWEB-0275             
1 48993U 21060AC  26193.53640925  .00000113  00000+0  26210-3 0  9995
2 48993  87.9083 223.7408 0001996  96.6469 263.4889 13.16595912242898
ONEWEB-0276             
1 48994U 21060AD  26194.02565030  .00000026  00000+0  33601-4 0  9990
2 48994  87.9084 223.6424 0001947  94.5069 265.6284 13.16594350242973
ONEWEB-0277             
1 48995U 21060AE  26193.65833717 -.00000034  00000+0 -12186-3 0  9994
2 48995  87.9071 223.7235 0002117  99.0807 261.0563 13.16594869242910
ONEWEB-0278             
1 48996U 21060AF  26194.02881811  .00000042  00000+0  77000-4 0  9999
2 48996  87.9096 223.6391 0002329  89.1317 271.0081 13.16594091243094
ONEWEB-0279             
1 48997U 21060AG  26193.58075141  .00000012  00000+0 -11412-5 0  9995
2 48997  87.9079 223.7283 0001938 100.5777 259.5572 13.16594282242963
ONEWEB-0280             
1 48998U 21060AH  26193.59578806  .00000070  00000+0  14994-3 0  9992
2 48998  87.9079 223.7297 0002413  96.5527 263.5879 13.16594832242905
ONEWEB-0281             
1 48999U 21060AJ  26193.52533422  .00000112  00000+0  26027-3 0  9998
2 48999  87.9080 223.7392 0002048  92.4723 267.6643 13.16593989242963
ONEWEB-0282             
1 49000U 21060AK  26194.01139857  .00000058  00000+0  11899-3 0  9991
2 49000  87.9080 223.6497 0002162  93.2652 266.8726 13.16595022243008
ONEWEB-0283             
1 49001U 21060AL  26193.54432933  .00000154  00000+0  36894-3 0  9999
2 49001  87.9078 223.7423 0002029  93.6276 266.5087 13.16593255242950
ONEWEB-0284             
1 49002U 21060AM  26193.53800592  .00000083  00000+0  18354-3 0  9991
2 49002  87.9081 223.7376 0002353  93.4456 266.6944 13.16594144242939
ONEWEB-0285             
1 49075U 21075A   26193.90468349  .00000294  00000+0  78288-3 0  9994
2 49075  87.8979 345.5469 0001858  96.1630 263.9710 13.12432813238580
ONEWEB-0286             
1 49076U 21075B   26193.88674787  .00000235  00000+0  61854-3 0  9993
2 49076  87.8953 345.5666 0001728  85.9555 274.1771 13.12441741237939
ONEWEB-0287             
1 49077U 21075C   26193.83307567 -.00000109  00000+0 -31367-3 0  9996
2 49077  87.9146   0.7626 0001840  80.9956 279.1384 13.17646640237009
ONEWEB-0288             
1 49078U 21075D   26194.32058620  .00000247  00000+0  65130-3 0  9991
2 49078  87.8966 345.4595 0001968  89.7779 270.3575 13.12442948238617
ONEWEB-0289             
1 49079U 21075E   26193.87188957  .00000304  00000+0  75075-3 0  9991
2 49079  87.9149   0.7741 0002303  97.3973 262.7420 13.17647588237582
ONEWEB-0290             
1 49080U 21075F   26193.92082575  .00000032  00000+0  48833-4 0  9999
2 49080  87.9147   0.7373 0002299  96.4455 263.6938 13.17650615237008
ONEWEB-0291             
1 49081U 21075G   26193.82971369  .00000085  00000+0  18484-3 0  9993
2 49081  87.9143   0.7605 0002142  85.2805 274.8571 13.17646853236987
ONEWEB-0293             
1 49082U 21075H   26193.93094538  .00000097  00000+0  21676-3 0  9990
2 49082  87.9133   0.7430 0001931  91.9664 268.1688 13.17651112237020
ONEWEB-0294             
1 49083U 21075J   26194.02244817 -.00012027  00000+0 -33473-1 0  9993
2 49083  87.8961 345.5230 0002399  99.3471 260.7929 13.12517741237967
ONEWEB-0295             
1 49084U 21075K   26193.93010864  .00000085  00000+0  18495-3 0  9994
2 49084  87.9139   0.7478 0001993  84.6981 275.4378 13.17650238236988
ONEWEB-0296             
1 49085U 21075L   26193.92584681 -.00000195  00000+0 -57846-3 0  9994
2 49085  87.8970 345.5493 0002067  88.1940 271.9425 13.12443978237953
ONEWEB-0297             
1 49086U 21075M   26193.88010822  .00000298  00000+0  79412-3 0  9996
2 49086  87.8956 345.5668 0001993  96.3727 263.7629 13.12441305238557
ONEWEB-0298             
1 49087U 21075N   26193.93448227  .00000092  00000+0  20405-3 0  9997
2 49087  87.9138   0.7450 0001716  89.8008 270.3320 13.17649655237017
ONEWEB-0299             
1 49088U 21075P   26193.93601276  .00000036  00000+0  60134-4 0  9995
2 49088  87.9151   0.7269 0001840  86.3475 273.7867 13.17648518236995
ONEWEB-0300             
1 49089U 21075Q   26193.87248500  .00000438  00000+0  11830-2 0  9999
2 49089  87.8970 345.5497 0001459  93.5370 266.5926 13.12442521238570
ONEWEB-0301             
1 49090U 21075R   26193.93262156  .00000053  00000+0  11148-3 0  9997
2 49090  87.8967 345.5360 0001514  98.9664 261.1636 13.12444135237946
ONEWEB-0302             
1 49091U 21075S   26193.91906777 -.00000253  00000+0 -73932-3 0  9993
2 49091  87.8961 345.5510 0002168  95.0360 265.1016 13.12442659237928
ONEWEB-0304             
1 49092U 21075T   26193.91069856  .00000079  00000+0  17107-3 0  9998
2 49092  87.9137   0.7526 0001903  86.2534 273.8815 13.17647359236968
ONEWEB-0305             
1 49093U 21075U   26193.90395059 -.00000076  00000+0 -22835-3 0  9998
2 49093  87.9149   0.7398 0001978  80.4566 279.6789 13.17647614236993
ONEWEB-0308             
1 49094U 21075V   26193.91228467 -.00000334  00000+0 -96405-3 0  9999
2 49094  87.8967 345.5443 0001822  95.4726 264.6611 13.12443019237935
